NORAD_CAT_ID,OBJECT_NAME,OBJECT_TYPE,EPOCH,MEAN_MOTION,ECCENTRICITY,INCLINATION,RA_OF_ASC_NODE,ARG_OF_PERICENTER,MEAN_ANOMALY,BSTAR,MEAN_MOTION_DOT,MEAN_MOTION_DDOT,TLE_LINE0,TLE_LINE1,TLE_LINE2,SEMIMAJOR_AXIS,PERIOD,APOGEE,PERIGEE,DECAYED
50806.0,STARLINK-3335,PAYLOAD,2022-11-17 01:33:54,15.08835608,0.0002314,53.216,184.8348,43.6104,316.5071,1.0653e-05,-1.19e-06,0.0,0 STARLINK-3335,1 50806U 22001D   22321.06521918 -.00000119  00000-0  10653-4 0  9997,2 50806  53.2160 184.8348 0002314  43.6104 316.5071 15.08835608 49350,6917.894,95.438,541.36,538.158,0.0
50806.0,STARLINK-3335,PAYLOAD,2022-11-17 23:49:18,15.0884274,0.0002197,53.2163,180.6717,46.2081,313.9093,9.089e-05,1.159e-05,0.0,0 STARLINK-3335,1 50806U 22001D   22321.99257179  .00001159  00000-0  90890-4 0  9999,2 50806  53.2163 180.6717 0002197  46.2081 313.9093 15.08842740 49494,6917.871999999999,95.437,541.257,538.217,0.0
50806.0,STARLINK-3335,PAYLOAD,2022-11-18 23:40:06,15.0883163,0.0002488,53.2162,176.2114,44.4978,315.6213,1.6758e-05,-2.2e-07,0.0,0 STARLINK-3335,1 50806U 22001D   22322.98618485 -.00000022  00000-0  16758-4 0  9990,2 50806  53.2162 176.2114 0002488  44.4978 315.6213 15.08831630 49649,6917.906,95.438,541.492,538.05,0.0
50806.0,STARLINK-3335,PAYLOAD,2022-11-19 07:37:01,15.08839273,0.0002373,53.2158,174.7242,44.6061,315.5122,5.903e-05,6.51e-06,0.0,0 STARLINK-3335,1 50806U 22001D   22323.31738009  .00000651  00000-0  59030-4 0  9990,2 50806  53.2158 174.7242 0002373  44.6061 315.5122 15.08839273 48421,6917.8830000000025,95.438,541.389,538.106,0.0
50806.0,STARLINK-3335,PAYLOAD,2022-11-20 01:06:15,15.08848203,0.0002096,53.2159,171.4525,49.6013,310.5162,6.1888e-05,6.97e-06,0.0,0 STARLINK-3335,1 50806U 22001D   22324.04601168  .00000697  00000-0  61888-4 0  9990,2 50806  53.2159 171.4525 0002096  49.6013 310.5162 15.08848203 49809,6917.855,95.437,541.17,538.27,0.0
50806.0,STARLINK-3335,PAYLOAD,2022-11-20 13:49:20,15.08848032,0.0002249,53.2163,169.0735,43.7217,316.3953,0.00013172,1.809e-05,0.0,0 STARLINK-3335,1 50806U 22001D   22324.57592950  .00001809  00000-0  13172-3 0  9994,2 50806  53.2163 169.0735 0002249  43.7217 316.3953 15.08848032 48611,6917.856,95.437,541.2769999999998,538.165,0.0
50806.0,STARLINK-3335,PAYLOAD,2022-11-20 20:10:52,15.08849017,0.0002313,53.2166,167.8851,43.74800000000001,316.3696,0.00014641,2.043e-05,0.0,0 STARLINK-3335,1 50806U 22001D   22324.84088696  .00002043  00000-0  14641-3 0  9994,2 50806  53.2166 167.8851 0002313  43.7480 316.3696 15.08849017 48655,6917.853,95.437,541.318,538.118,0.0
50806.0,STARLINK-3335,PAYLOAD,2022-11-20 23:21:39,15.08839529,0.000222,53.2159,167.2898,42.9192,317.1973,6.1146e-05,6.85e-06,0.0,0 STARLINK-3335,1 50806U 22001D   22324.97337482  .00000685  00000-0  61146-4 0  9991,2 50806  53.2159 167.2898 0002220  42.9192 317.1973 15.08839529 49947,6917.882,95.438,541.283,538.211,0.0
50806.0,STARLINK-3335,PAYLOAD,2022-11-21 16:50:53,15.08847234,0.0002264,53.2162,164.0191,43.9083,316.2089,7.0835e-05,8.39e-06,0.0,0 STARLINK-3335,1 50806U 22001D   22325.70200871  .00000839  00000-0  70835-4 0  9990,2 50806  53.2162 164.0191 0002264  43.9083 316.2089 15.08847234 50054,6917.858,95.437,541.289,538.1569999999998,0.0
50806.0,STARLINK-3335,PAYLOAD,2022-11-21 20:01:39,15.08851148,0.000232,53.216,163.4244,44.7846,315.3333,0.00010677,1.412e-05,0.0,0 STARLINK-3335,1 50806U 22001D   22325.83448517  .00001412  00000-0  10677-3 0  9990,2 50806  53.2160 163.4244 0002320  44.7846 315.3333 15.08851148 48804,6917.846,95.437,541.316,538.106,0.0
50806.0,STARLINK-3335,PAYLOAD,2022-11-21 23:12:26,15.088405800000002,0.0002278,53.2165,162.8297,42.5121,317.6047,-2.6998e-05,-7.18e-06,0.0,0 STARLINK-3335,1 50806U 22001D   22325.96697094 -.00000718  00000-0 -26998-4 0  9994,2 50806  53.2165 162.8297 0002278  42.5121 317.6047 15.08840580 50093,6917.879,95.438,541.32,538.168,0.0
50806.0,STARLINK-3335,PAYLOAD,2022-11-22 19:52:27,15.08839841,0.0002416,53.2163,158.9641,46.1894,313.9298,-5.6858e-05,-1.193e-05,0.0,0 STARLINK-3335,1 50806U 22001D   22326.82809530 -.00001193  00000-0 -56858-4 0  9996,2 50806  53.2163 158.9641 0002416  46.1894 313.9298 15.08839841 48958,6917.880999999999,95.438,541.4169999999998,538.075,0.0
50806.0,STARLINK-3335,PAYLOAD,2022-11-23 05:24:46,15.08835602,0.0002379,53.216,157.179,45.6898,314.4289,4.0156e-05,3.51e-06,0.0,0 STARLINK-3335,1 50806U 22001D   22327.22553548  .00000351  00000-0  40156-4 0  9993,2 50806  53.2160 157.1790 0002379  45.6898 314.4289 15.08835602 50283,6917.894,95.438,541.405,538.113,0.0
50806.0,STARLINK-3335,PAYLOAD,2022-11-23 13:21:41,15.08878162,0.0002271,53.2164,155.6919,41.4365,318.6799,-0.00047068,-7.780000000000001e-05,0.0,0 STARLINK-3335,1 50806U 22001D   22327.55672932 -.00007780  00000-0 -47068-3 0  9991,2 50806  53.2164 155.6919 0002271  41.4365 318.6799 15.08878162 50333,6917.764,95.435,541.2,538.058,0.0
50806.0,STARLINK-3335,PAYLOAD,2022-11-23 18:07:45,15.08909948,0.0002156,53.216,154.7998,106.5395,253.5834,0.00057349,8.868e-05,0.0,0 STARLINK-3335,1 50806U 22001D   22327.75539256  .00008868  00000-0  57349-3 0  9993,2 50806  53.2160 154.7998 0002156 106.5395 253.5834 15.08909948 50361,6917.667,95.433,541.023,538.04,0.0
50806.0,STARLINK-3335,PAYLOAD,2022-11-24 05:15:33,15.0883849,0.0002378,53.2174,152.7184,50.7032,309.4170000000001,9.5425e-05,1.231e-05,0.0,0 STARLINK-3335,1 50806U 22001D   22328.21913364  .00001231  00000-0  95425-4 0  9996,2 50806  53.2174 152.7184 0002378  50.7032 309.4170 15.08838490 50430,6917.885,95.438,541.395,538.105,0.0
50806.0,STARLINK-3335,PAYLOAD,2022-11-24 11:37:05,15.08837507,0.0002321,53.2173,151.5288,50.0747,310.0449,0.0001122,1.498e-05,0.0,0 STARLINK-3335,1 50806U 22001D   22328.48409431  .00001498  00000-0  11220-3 0  9995,2 50806  53.2173 151.5288 0002321  50.0747 310.0449 15.08837507 49203,6917.888000000001,95.438,541.359,538.1469999999998,0.0
50806.0,STARLINK-3335,PAYLOAD,2022-11-24 17:58:38,15.08839888,0.0002335,53.2174,150.3394,50.6655,309.4544,0.00010629,1.404e-05,0.0,0 STARLINK-3335,1 50806U 22001D   22328.74905298  .00001404  00000-0  10629-3 0  9995,2 50806  53.2174 150.3394 0002335  50.6655 309.4544 15.08839888 49244,6917.880999999999,95.438,541.361,538.13,0.0
50806.0,STARLINK-3335,PAYLOAD,2022-11-24 22:44:47,15.08843427,0.0002116,53.2164,149.44799999999995,57.3313,302.7883,-6.1123e-05,-1.261e-05,0.0,0 STARLINK-3335,1 50806U 22001D   22328.94777518 -.00001261  00000-0 -61123-4 0  9998,2 50806  53.2164 149.4480 0002116  57.3313 302.7883 15.08843427 49279,6917.87,95.437,541.1990000000002,538.271,0.0
50806.0,STARLINK-3335,PAYLOAD,2022-11-25 17:49:26,15.08830284,0.0002291,53.2181,145.8786,54.9375,305.1832,-2.5765e-05,-6.98e-06,0.0,0 STARLINK-3335,1 50806U 22001D   22329.74266853 -.00000698  00000-0 -25765-4 0  9997,2 50806  53.2181 145.8786 0002291  54.9375 305.1832 15.08830284 50665,6917.91,95.438,541.36,538.19,0.0
50806.0,STARLINK-3335,PAYLOAD,2022-11-25 21:00:12,15.08830107,0.0002437,53.2184,145.2836,54.0233,306.0985,-2.4938e-05,-6.85e-06,0.0,0 STARLINK-3335,1 50806U 22001D   22329.87514985 -.00000685  00000-0 -24938-4 0  9990,2 50806  53.2184 145.2836 0002437  54.0233 306.0985 15.08830107 49418,6917.911,95.438,541.462,538.09,0.0
50806.0,STARLINK-3335,PAYLOAD,2022-11-26 11:18:41,15.08831809,0.0002331,53.2177,142.6084,50.6234,309.4964,2.2047e-06,-2.53e-06,0.0,0 STARLINK-3335,1 50806U 22001D   22330.47131144 -.00000253  00000-0  22047-5 0  9990,2 50806  53.2177 142.6084 0002331  50.6234 309.4964 15.08831809 49506,6917.905,95.438,541.383,538.158,0.0
50806.0,STARLINK-3335,PAYLOAD,2022-11-26 17:40:13,15.08832899,0.0002406,53.2174,141.4195,49.6614,310.4588,-2.5495e-08,-2.89e-06,0.0,0 STARLINK-3335,1 50806U 22001D   22330.73627224 -.00000289  00000-0 -25495-7 0  9990,2 50806  53.2174 141.4195 0002406  49.6614 310.4588 15.08832899 49544,6917.901999999999,95.438,541.432,538.1030000000002,0.0
50806.0,STARLINK-3335,PAYLOAD,2022-11-27 04:47:55,15.08831398,0.0002423,53.2178,139.3377,50.27,309.8506,8.8703e-05,1.123e-05,0.0,0 STARLINK-3335,1 50806U 22001D   22331.19995342  .00001123  00000-0  88703-4 0  9994,2 50806  53.2178 139.3377 0002423  50.2700 309.8506 15.08831398 50883,6917.906999999997,95.438,541.448,538.095,0.0
50806.0,STARLINK-3335,PAYLOAD,2022-11-27 11:09:28,15.08829487,0.0002417,53.2179,138.1482,50.5547,309.5659,0.00011652,1.566e-05,0.0,0 STARLINK-3335,1 50806U 22001D   22331.46491542  .00001566  00000-0  11652-3 0  9996,2 50806  53.2179 138.1482 0002417  50.5547 309.5659 15.08829487 49658,6917.913000000001,95.438,541.45,538.105,0.0
50806.0,STARLINK-3335,PAYLOAD,2022-11-27 20:41:47,15.08835387,0.0002445,53.2178,136.3641,51.4846,308.6365,0.00013489,1.859e-05,0.0,0 STARLINK-3335,1 50806U 22001D   22331.86235462  .00001859  00000-0  13489-3 0  9992,2 50806  53.2178 136.3641 0002445  51.4846 308.6365 15.08835387 49714,6917.894,95.438,541.451,538.068,0.0
50806.0,STARLINK-3335,PAYLOAD,2022-11-28 11:00:15,15.088406,0.0002459,53.2179,133.6877,52.4726,307.6489,0.00015534,2.185e-05,0.0,0 STARLINK-3335,1 50806U 22001D   22332.45851308  .00002185  00000-0  15534-3 0  9997,2 50806  53.2179 133.6877 0002459  52.4726 307.6489 15.08840600 51071,6917.879,95.438,541.445,538.0419999999998,0.0
50806.0,STARLINK-3335,PAYLOAD,2022-11-28 17:21:47,15.08844879,0.0002474,53.2177,132.4983,52.909,307.2128,0.00017024,2.422e-05,0.0,0 STARLINK-3335,1 50806U 22001D   22332.72347011  .00002422  00000-0  17024-3 0  9998,2 50806  53.2177 132.4983 0002474  52.9090 307.2128 15.08844879 49840,6917.865,95.437,541.442,538.019,0.0
50806.0,STARLINK-3335,PAYLOAD,2022-11-29 10:51:01,15.08852533,0.0002493,53.2177,129.2272,54.1867,305.9356,0.00017453,2.491e-05,0.0,0 STARLINK-3335,1 50806U 22001D   22333.45210251  .00002491  00000-0  17453-3 0  9996,2 50806  53.2177 129.2272 0002493  54.1867 305.9356 15.08852533 51221,6917.842,95.437,541.432,537.982,0.0
